$$SOE
2459580.500000000, A.D. 2022-Jan-01 00:00:00.0000, -2.657742508185962E+08, -4.597970873917009E+08, 8.648074178659813E+07,
2459587.500000000, A.D. 2022-Jan-08 00:00:00.0000, -2.578838242205440E+08, -4.647540444386137E+08, 8.716827499712014E+07,
2459594.500000000, A.D. 2022-Jan-15 00:00:00.0000, -2.499133052846567E+08, -4.695665908771355E+08, 8.782872319932683E+07,
2459601.500000000, A.D. 2022-Jan-22 00:00:00.0000, -2.418653923217452E+08, -4.742336571669796E+08, 8.846196020212756E+07,
2459608.500000000, A.D. 2022-Jan-29 00:00:00.0000, -2.337427891792226E+08, -4.787542183125542E+08, 8.906786828686008E+07,
2459615.500000000, A.D. 2022-Feb-05 00:00:00.0000, -2.255482067180679E+08, -4.831272942109800E+08, 8.964633828163749E+07,
2459622.500000000, A.D. 2022-Feb-12 00:00:00.0000, -2.172843621349303E+08, -4.873519510635997E+08, 9.019726935008264E+07,
2459629.500000000, A.D. 2022-Feb-19 00:00:00.0000, -2.089539774542732E+08, -4.914273014830436E+08, 9.072056880978110E+07,
2459636.500000000, A.D. 2022-Feb-26 00:00:00.0000, -2.005597785018093E+08, -4.953525040193162E+08, 9.121615204162122E+07,
2459643.500000000, A.D. 2022-Mar-05 00:00:00.0000, -1.921044941995987E+08, -4.991267627221307E+08, 9.168394242480828E+07,
2459650.500000000, A.D. 2022-Mar-12 00:00:00.0000, -1.835908559605265E+08, -5.027493268056219E+08, 9.212387127162090E+07,
2459657.500000000, A.D. 2022-Mar-19 00:00:00.0000, -1.750215971106786E+08, -5.062194903879602E+08, 9.253587775754088E+07,
2459664.500000000, A.D. 2022-Mar-26 00:00:00.0000, -1.663994523170000E+08, -5.095365923123768E+08, 9.291990884414642E+07,
2459671.500000000, A.D. 2022-Apr-02 00:00:00.0000, -1.577271569524096E+08, -5.127000161057746E+08, 9.327591918386889E+07,
2459678.500000000, A.D. 2022-Apr-09 00:00:00.0000, -1.490074461262692E+08, -5.157091900699828E+08, 9.360387098178403E+07,
2459685.500000000, A.D. 2022-Apr-16 00:00:00.0000, -1.402430530227488E+08, -5.185635868511216E+08, 9.390373383474855E+07,
2459692.500000000, A.D. 2022-Apr-23 00:00:00.0000, -1.314367078152214E+08, -5.212627214021939E+08, 9.417548475248139E+07,
2459699.500000000, A.D. 2022-Apr-30 00:00:00.0000, -1.225911390255756E+08, -5.238061495838177E+08, 9.441910834831890E+07,
2459706.500000000, A.D. 2022-May-07 00:00:00.0000, -1.137090742644004E+08, -5.261934693774928E+08, 9.463459675746879E+07,
2459713.500000000, A.D. 2022-May-14 00:00:00.0000, -1.047932389622109E+08, -5.284243216749274E+08, 9.482194940408292E+07,
2459720.500000000, A.D. 2022-May-21 00:00:00.0000, -9.584635512304688E+07, -5.304983898858875E+08, 9.498117286592266E+07,
2459727.500000000, A.D. 2022-May-28 00:00:00.0000, -8.687114057955506E+07, -5.324153993237032E+08, 9.511228080240020E+07,
2459734.500000000, A.D. 2022-Jun-04 00:00:00.0000, -7.787030847252114E+07, -5.341751166810811E+08, 9.521529389501426E+07,
2459741.500000000, A.D. 2022-Jun-11 00:00:00.0000, -6.884656680989735E+07, -5.357773495935956E+08, 9.529023978695913E+07,
2459748.500000000, A.D. 2022-Jun-18 00:00:00.0000, -5.980261806602385E+07, -5.372219462771384E+08, 9.533715301930866E+07,
2459755.500000000, A.D. 2022-Jun-25 00:00:00.0000, -5.074115879083426E+07, -5.385087952722763E+08, 9.535607495834102E+07,
2459762.500000000, A.D. 2022-Jul-02 00:00:00.0000, -4.166487909426704E+07, -5.396378253612680E+08, 9.534705369646089E+07,
2459769.500000000, A.D. 2022-Jul-09 00:00:00.0000, -3.257646161500380E+07, -5.406090054809657E+08, 9.531014390561970E+07,
2459776.500000000, A.D. 2022-Jul-16 00:00:00.0000, -2.347858002829916E+07, -5.414223435490247E+08, 9.524540673706324E+07,
2459783.500000000, A.D. 2022-Jul-23 00:00:00.0000, -1.437389929100034E+07, -5.420778841256533E+08, 9.515290997559537E+07,
2459790.500000000, A.D. 2022-Jul-30 00:00:00.0000, -5.265077539065365E+06, -5.425757082645621E+08, 9.503272816664031E+07,
2459797.500000000, A.D. 2022-Aug-06 00:00:00.0000, 3.845233961969388E+06, -5.429159349053917E+08, 9.488494243926193E+07,
2459804.500000000, A.D. 2022-Aug-13 00:00:00.0000, 1.295439199074205E+07, -5.430987210539809E+08, 9.470964032624623E+07,
2459811.500000000, A.D. 2022-Aug-20 00:00:00.0000, 2.205976209878402E+07, -5.431242612542684E+08, 9.450691568444636E+07,
2459818.500000000, A.D. 2022-Aug-27 00:00:00.0000, 3.115871896248917E+07, -5.429927870784304E+08, 9.427686864999840E+07,
2459825.500000000, A.D. 2022-Sep-03 00:00:00.0000, 4.024864660649278E+07, -5.427045667457074E+08, 9.401960559675232E+07,
2459832.500000000, A.D. 2022-Sep-10 00:00:00.0000, 4.932693858890723E+07, -5.422599048458384E+08, 9.373523909163018E+07,
2459839.500000000, A.D. 2022-Sep-17 00:00:00.0000, 5.839099817833109E+07, -5.416591421687242E+08, 9.342388784402177E+07,
2459846.500000000, A.D. 2022-Sep-24 00:00:00.0000, 6.743823858367878E+07, -5.409026556912493E+08, 9.308567663947238E+07,
2459853.500000000, A.D. 2022-Oct-01 00:00:00.0000, 7.646608347736591E+07, -5.399908587438540E+08, 9.272073623380291E+07,
2459860.500000000, A.D. 2022-Oct-08 00:00:00.0000, 8.547196821955091E+07, -5.389242008351843E+08, 9.232920321293159E+07,
2459867.500000000, A.D. 2022-Oct-15 00:00:00.0000, 9.445334085175185E+07, -5.377031659359062E+08, 9.191122000171921E+07,
2459874.500000000, A.D. 2022-Oct-22 00:00:00.0000, 1.034076606783574E+08, -5.363282709052846E+08, 9.146693508394614E+07,
2459881.500000000, A.D. 2022-Oct-29 00:00:00.0000, 1.123323969344378E+08, -5.348000666535134E+08, 9.099650299187669E+07,
2459888.500000000, A.D. 2022-Nov-05 00:00:00.0000, 1.212250296400153E+08, -5.331191392989370E+08, 9.050008409667003E+07,
2459895.500000000, A.D. 2022-Nov-12 00:00:00.0000, 1.300830506764348E+08, -5.312861100535712E+08, 8.997784448341002E+07,
2459902.500000000, A.D. 2022-Nov-19 00:00:00.0000, 1.389039643656227E+08, -5.293016347913820E+08, 8.942995589870328E+07,
2459909.500000000, A.D. 2022-Nov-26 00:00:00.0000, 1.476852878144775E+08, -5.271664036967521E+08, 8.885659571420866E+07,
2459916.500000000, A.D. 2022-Dec-03 00:00:00.0000, 1.564245511903046E+08, -5.248811410045122E+08, 8.825794688975044E+07,
2459923.500000000, A.D. 2022-Dec-10 00:00:00.0000, 1.651192979726740E+08, -5.224466048123222E+08, 8.763419793308842E+07,
2459930.500000000, A.D. 2022-Dec-17 00:00:00.0000, 1.737670852065217E+08, -5.198635869895549E+08, 8.698554285168149E+07,
2459937.500000000, A.D. 2022-Dec-24 00:00:00.0000, 1.823654838664677E+08, -5.171329132476977E+08, 8.631218108076192E+07,
2459944.500000000, A.D. 2022-Dec-31 00:00:00.0000, 1.909120796909859E+08, -5.142554432644455E+08, 8.561431736368382E+07,
2459951.500000000, A.D. 2023-Jan-07 00:00:00.0000, 1.994044746101476E+08, -5.112320698994840E+08, 8.489216165219809E+07,
2459958.500000000, A.D. 2023-Jan-14 00:00:00.0000, 2.078402868004311E+08, -5.080637170058154E+08, 8.414592924800453E+07,
2459965.500000000, A.D. 2023-Jan-21 00:00:00.0000, 2.162171487219505E+08, -5.047513390093482E+08, 8.337584098555025E+07,
2459972.500000000, A.D. 2023-Jan-28 00:00:00.0000, 2.245327068064545E+08, -5.012959224521152E+08, 8.258212310369515E+07,
2459979.500000000, A.D. 2023-Feb-04 00:00:00.0000, 2.327846225880239E+08, -4.976984864717111E+08, 8.176500707301770E+07,
2459986.500000000, A.D. 2023-Feb-11 00:00:00.0000, 2.409705734814138E+08, -4.939600824107836E+08, 8.092472952780664E+07,
2459993.500000000, A.D. 2023-Feb-18 00:00:00.0000, 2.490882531449046E+08, -4.900817933795644E+08, 8.006153224134837E+07,
2460000.500000000, A.D. 2023-Feb-25 00:00:00.0000, 2.571353716906770E+08, -4.860647339328138E+08, 7.917566210723642E+07,
2460007.500000000, A.D. 2023-Mar-04 00:00:00.0000, 2.651096558451949E+08, -4.819100498418634E+08, 7.826737111891791E+07,
2460014.500000000, A.D. 2023-Mar-11 00:00:00.0000, 2.730088490885375E+08, -4.776189179606449E+08, 7.733691634494171E+07,
2460021.500000000, A.D. 2023-Mar-18 00:00:00.0000, 2.808307118201640E+08, -4.731925462344595E+08, 7.638455989159678E+07,
2460028.500000000, A.D. 2023-Mar-25 00:00:00.0000, 2.885730217550721E+08, -4.686321738980296E+08, 7.541056883055820E+07,
2460035.500000000, A.D. 2023-Apr-01 00:00:00.0000, 2.962335749756960E+08, -4.639390714691195E+08, 7.441521508502716E+07,
2460042.500000000, A.D. 2023-Apr-08 00:00:00.0000, 3.038101870248019E+08, -4.591145393128874E+08, 7.339877543127862E+07,
2460049.500000000, A.D. 2023-Apr-15 00:00:00.0000, 3.113006917024207E+08, -4.541599058831151E+08, 7.236153173975345E+07,
2460056.500000000, A.D. 2023-Apr-22 00:00:00.0000, 3.187029393758560E+08, -4.490765286914534E+08, 7.130377104018544E+07,
2460063.500000000, A.D. 2023-Apr-29 00:00:00.0000, 3.260147975382752E+08, -4.438657957510040E+08, 7.022578534387608E+07,
2460070.500000000, A.D. 2023-May-06 00:00:00.0000, 3.332341518563551E+08, -4.385291257129532E+08, 6.912787153016554E+07,
2460077.500000000, A.D. 2023-May-13 00:00:00.0000, 3.403589067306315E+08, -4.330679675897503E+08, 6.801033131362571E+07,
2460084.500000000, A.D. 2023-May-20 00:00:00.0000, 3.473869856029896E+08, -4.274838005557355E+08, 6.687347123018476E+07,
2460091.500000000, A.D. 2023-May-27 00:00:00.0000, 3.543163312050500E+08, -4.217781338544154E+08, 6.571760262177478E+07,
2460098.500000000, A.D. 2023-Jun-03 00:00:00.0000, 3.611449058052612E+08, -4.159525067861615E+08, 6.454304161603534E+07,
2460105.500000000, A.D. 2023-Jun-10 00:00:00.0000, 3.678706914786169E+08, -4.100084887897772E+08, 6.335010909740406E+07,
2460112.500000000, A.D. 2023-Jun-17 00:00:00.0000, 3.744916904881968E+08, -4.039476796775394E+08, 6.213913065611723E+07,
2460119.500000000, A.D. 2023-Jun-24 00:00:00.0000, 3.810059260989487E+08, -3.977717099675425E+08, 6.091043648999101E+07,
2460126.500000000, A.D. 2023-Jul-01 00:00:00.0000, 3.874114440776672E+08, -3.914822404850720E+08, 5.966436130332388E+07,
2460133.500000000, A.D. 2023-Jul-08 00:00:00.0000, 3.937063132059079E+08, -3.850809604114062E+08, 5.840124442367698E+07,
2460140.500000000, A.D. 2023-Jul-15 00:00:00.0000, 3.998886235289840E+08, -3.785695866101142E+08, 5.712143002224538E+07,
2460147.500000000, A.D. 2023-Jul-22 00:00:00.0000, 4.059564858620201E+08, -3.719498652646596E+08, 5.582526702994812E+07,
$$EOE